NORAD_CAT_ID,OBJECT_NAME,OBJECT_TYPE,EPOCH,MEAN_MOTION,ECCENTRICITY,INCLINATION,RA_OF_ASC_NODE,ARG_OF_PERICENTER,MEAN_ANOMALY,BSTAR,MEAN_MOTION_DOT,MEAN_MOTION_DDOT,TLE_LINE0,TLE_LINE1,TLE_LINE2,SEMIMAJOR_AXIS,PERIOD,APOGEE,PERIGEE,DECAYED
53179.0,STARLINK-4276,PAYLOAD,2023-12-18 18:30:13,15.08850837,0.0001314,53.2154,168.5688,87.1558,272.9584,0.00028741,4.291e-05,0.0,0 STARLINK-4276,1 53179U 22083AZ  23352.77099322  .00004291  00000-0  28741-3 0  9995,2 53179  53.2154 168.5688 0001314  87.1558 272.9584 15.08850837 79987,6917.847,95.437,540.621,538.803,0.0
53179.0,STARLINK-4276,PAYLOAD,2023-12-19 18:20:59,15.08859283,0.0001325,53.2163,164.0994,83.5011,276.6132,0.00023047,3.384e-05,0.0,0 STARLINK-4276,1 53179U 22083AZ  23353.76458172  .00003384  00000-0  23047-3 0  9993,2 53179  53.2163 164.0994 0001325  83.5011 276.6132 15.08859283 79494,6917.821,95.436,540.603,538.77,0.0
53179.0,STARLINK-4276,PAYLOAD,2023-12-20 16:36:23,15.08849106,0.0001311,53.2156,159.9378,97.9418,262.1723,1.335e-05,-7.5e-07,0.0,0 STARLINK-4276,1 53179U 22083AZ  23354.69193992 -.00000075  00000-0  13350-4 0  9994,2 53179  53.2156 159.9378 0001311  97.9418 262.1723 15.08849106 80277,6917.853,95.437,540.624,538.811,0.0
53179.0,STARLINK-4276,PAYLOAD,2023-12-21 14:51:47,15.08846705,0.0001249,53.2157,155.7753,98.3224,261.791,-0.0001395,-2.508e-05,0.0,0 STARLINK-4276,1 53179U 22083AZ  23355.61929778 -.00002508  00000-0 -13950-3 0  9995,2 53179  53.2157 155.7753 0001249  98.3224 261.7910 15.08846705 79777,6917.86,95.437,540.589,538.861,0.0
53179.0,STARLINK-4276,PAYLOAD,2023-12-22 14:42:34,15.08839918,0.0001234,53.2161,151.3155,84.9912,275.1221,8.6131e-05,1.083e-05,0.0,0 STARLINK-4276,1 53179U 22083AZ  23356.61290164  .00001083  00000-0  86131-4 0  9993,2 53179  53.2161 151.3155 0001234  84.9912 275.1221 15.08839918 79928,6917.881,95.438,540.599,538.892,0.0
53179.0,STARLINK-4276,PAYLOAD,2023-12-22 17:53:20,15.08843018,0.0001257,53.216,150.7212,81.2684,278.8451,0.00012711,1.736e-05,0.0,0 STARLINK-4276,1 53179U 22083AZ  23356.74538032  .00001736  00000-0  12711-3 0  9993,2 53179  53.2160 150.7212 0001257  81.2684 278.8451 15.08843018 80580,6917.871,95.437,540.606,538.867,0.0
53179.0,STARLINK-4276,PAYLOAD,2023-12-23 14:33:21,15.08839635,0.000128,53.2159,146.8563,73.7494,286.3638,7.0564e-05,8.35e-06,0.0,0 STARLINK-4276,1 53179U 22083AZ  23357.60650309  .00000835  00000-0  70564-4 0  9991,2 53179  53.2159 146.8563 0001280  73.7494 286.3638 15.08839635 80079,6917.882,95.438,540.632,538.861,0.0
53179.0,STARLINK-4276,PAYLOAD,2023-12-23 19:19:30,15.08848084,0.0001274,53.2176,145.9621,83.6825,276.4312,0.00015181,2.13e-05,0.0,0 STARLINK-4276,1 53179U 22083AZ  23357.80521782  .00002130  00000-0  15181-3 0  9998,2 53179  53.2176 145.9621 0001274  83.6825 276.4312 15.08848084 80745,6917.856,95.437,540.602,538.839,0.0
53179.0,STARLINK-4276,PAYLOAD,2023-12-24 14:24:08,15.08842207,0.0001255,53.2179,142.3918,102.954,257.1592,5.0591e-05,5.17e-06,0.0,0 STARLINK-4276,1 53179U 22083AZ  23358.60010219  .00000517  00000-0  50591-4 0  9997,2 53179  53.2179 142.3918 0001255 102.9540 257.1592 15.08842207 80226,6917.874,95.437,540.607,538.87,0.0
53179.0,STARLINK-4276,PAYLOAD,2023-12-24 19:10:17,15.08850681,0.0001359,53.2179,141.4985,107.4345,252.6796,0.00010581,1.397e-05,0.0,0 STARLINK-4276,1 53179U 22083AZ  23358.79881553  .00001397  00000-0  10581-3 0  9995,2 53179  53.2179 141.4985 0001359 107.4345 252.6796 15.08850681 80252,6917.848,95.437,540.653,538.773,0.0
53179.0,STARLINK-4276,PAYLOAD,2023-12-25 09:28:46,15.0883722,0.0002013,53.218,138.8182,144.6367,215.4759,-6.5649e-05,-1.333e-05,0.0,0 STARLINK-4276,1 53179U 22083AZ  23359.39498184 -.00001333  00000-0 -65649-4 0  9994,2 53179  53.2180 138.8182 0002013 144.6367 215.4759 15.08837220 80988,6917.889,95.438,541.146,538.361,0.0
53179.0,STARLINK-4276,PAYLOAD,2023-12-25 14:14:55,15.08845229,0.000169,53.2173,137.9337,118.8741,241.242,5.5845e-05,6.01e-06,0.0,0 STARLINK-4276,1 53179U 22083AZ  23359.59369940  .00000601  00000-0  55845-4 0  9995,2 53179  53.2173 137.9337 0001690 118.8741 241.2420 15.08845229 80374,6917.864,95.437,540.899,538.56,0.0
53179.0,STARLINK-4276,PAYLOAD,2023-12-25 15:50:18,15.08844938,0.0001448,53.2171,137.6375,113.6945,246.4199,5.4628e-05,5.82e-06,0.0,0 STARLINK-4276,1 53179U 22083AZ  23359.65993972  .00000582  00000-0  54628-4 0  9996,2 53179  53.2171 137.6375 0001448 113.6945 246.4199 15.08844938 80388,6917.865,95.437,540.732,538.729,0.0
53179.0,STARLINK-4276,PAYLOAD,2023-12-26 09:19:34,15.0883486,0.0001382,53.2142,134.3699,78.7744,281.3404,8.5599e-05,1.074e-05,0.0,0 STARLINK-4276,1 53179U 22083AZ  23360.38858859  .00001074  00000-0  85599-4 0  9990,2 53179  53.2142 134.3699 0001382  78.7744 281.3404 15.08834860 81138,6917.896,95.438,540.717,538.805,0.0
53179.0,STARLINK-4276,PAYLOAD,2023-12-26 14:05:43,15.08837466,0.000139,53.2167,133.4766,105.2028,254.9118,4.5525e-05,4.37e-06,0.0,0 STARLINK-4276,1 53179U 22083AZ  23360.58730659  .00000437  00000-0  45525-4 0  9996,2 53179  53.2167 133.4766 0001390 105.2028 254.9118 15.08837466 80525,6917.888,95.438,540.715,538.792,0.0
53179.0,STARLINK-4276,PAYLOAD,2023-12-26 15:41:06,15.0883926,0.0001548,53.2158,133.1807,72.0753,288.0407,1.2853e-05,-8.3e-07,0.0,0 STARLINK-4276,1 53179U 22083AZ  23360.65354861 -.00000083  00000-0  12853-4 0  9997,2 53179  53.2158 133.1807 0001548  72.0753 288.0407 15.08839260 80533,6917.883,95.438,540.819,538.677,0.0
53179.0,STARLINK-4276,PAYLOAD,2023-12-27 13:56:30,15.08839624,0.0001329,53.2156,129.0172,83.9194,276.195,9.8401e-05,1.278e-05,0.0,0 STARLINK-4276,1 53179U 22083AZ  23361.58090684  .00001278  00000-0  98401-4 0  9999,2 53179  53.2156 129.0172 0001329  83.9194 276.1950 15.08839624 80677,6917.882,95.438,540.666,538.827,0.0
53179.0,STARLINK-4276,PAYLOAD,2023-12-27 18:42:39,15.08846467,0.0001379,53.2162,128.1225,91.4638,268.6512,0.00010925,1.452e-05,0.0,0 STARLINK-4276,1 53179U 22083AZ  23361.77962192  .00001452  00000-0  10925-3 0  9990,2 53179  53.2162 128.1225 0001379  91.4638 268.6512 15.08846467 81343,6917.861,95.437,540.68,538.772,0.0
53179.0,STARLINK-4276,PAYLOAD,2023-12-28 12:11:54,15.08840933,0.0001478,53.2173,124.8485,101.0508,259.065,6.1254e-05,6.87e-06,0.0,0 STARLINK-4276,1 53179U 22083AZ  23362.50826811  .00000687  00000-0  61254-4 0  9990,2 53179  53.2173 124.8485 0001478 101.0508 259.0650 15.08840933 81451,6917.878,95.437,540.765,538.72,0.0
53179.0,STARLINK-4276,PAYLOAD,2023-12-28 13:47:17,15.08841436,0.0001472,53.218,124.5508,92.6655,267.4506,6.257e-05,7.08e-06,0.0,0 STARLINK-4276,1 53179U 22083AZ  23362.57450806  .00000708  00000-0  62570-4 0  9990,2 53179  53.2180 124.5508 0001472  92.6655 267.4506 15.08841436 80826,6917.876,95.437,540.759,538.723,0.0
53179.0,STARLINK-4276,PAYLOAD,2023-12-29 12:02:41,15.08841041,0.0001302,53.2167,120.3911,95.0779,265.0362,-2.451e-05,-6.78e-06,0.0,0 STARLINK-4276,1 53179U 22083AZ  23363.50187303 -.00000678  00000-0 -24510-4 0  9993,2 53179  53.2167 120.3911 0001302  95.0779 265.0362 15.08841041 81602,6917.877,95.437,540.643,538.841,0.0
53179.0,STARLINK-4276,PAYLOAD,2023-12-29 13:38:04,15.08842053,0.0001288,53.2167,120.0939,92.8427,267.2712,-1.1838e-05,-4.76e-06,0.0,0 STARLINK-4276,1 53179U 22083AZ  23363.56811185 -.00000476  00000-0 -11838-4 0  9996,2 53179  53.2167 120.0939 0001288  92.8427 267.2712 15.08842053 80973,6917.874,95.437,540.63,538.848,0.0
53179.0,STARLINK-4276,PAYLOAD,2023-12-30 13:28:51,15.08842438,0.0001307,53.2167,115.6339,94.7652,265.3489,8.5854e-05,1.079e-05,0.0,0 STARLINK-4276,1 53179U 22083AZ  23364.56170987  .00001079  00000-0  85854-4 0  9992,2 53179  53.2167 115.6339 0001307  94.7652 265.3489 15.08842438 81125,6917.873,95.437,540.642,538.834,0.0
53179.0,STARLINK-4276,PAYLOAD,2023-12-30 15:04:14,15.08844948,0.0001303,53.2169,115.3364,91.0441,269.0701,0.00010578,1.396e-05,0.0,0 STARLINK-4276,1 53179U 22083AZ  23364.62794785  .00001396  00000-0  10578-3 0  9999,2 53179  53.2169 115.3364 0001303  91.0441 269.0701 15.08844948 81771,6917.865,95.437,540.632,538.829,0.0
53179.0,STARLINK-4276,PAYLOAD,2023-12-31 11:44:16,15.08835745,0.000134,53.2169,111.4731,74.3541,285.7599,2.1549e-05,5.5e-07,0.0,0 STARLINK-4276,1 53179U 22083AZ  23365.48907885  .00000055  00000-0  21549-4 0  9993,2 53179  53.2169 111.4731 0001340  74.3541 285.7599 15.08835745 81902,6917.893,95.438,540.685,538.831,0.0
53179.0,STARLINK-4276,PAYLOAD,2023-12-31 14:55:02,15.08840132,0.0001306,53.2172,110.8769,84.9121,275.202,5.254e-05,5.48e-06,0.0,0 STARLINK-4276,1 53179U 22083AZ  23365.62155463  .00000548  00000-0  52540-4 0  9998,2 53179  53.2172 110.8769 0001306  84.9121 275.2020 15.08840132 81283,6917.88,95.438,540.648,538.842,0.0
53179.0,STARLINK-4276,PAYLOAD,2024-01-01 13:10:26,15.08844412,0.0001397,53.2171,106.7138,80.3603,279.7547,5.4938e-05,5.87e-06,0.0,0 STARLINK-4276,1 53179U 22083AZ  24001.54891295  .00000587  00000-0  54938-4 0  9993,2 53179  53.2171 106.7138 0001397  80.3603 279.7547 15.08844412 81425,6917.867,95.437,540.698,538.765,0.0
53179.0,STARLINK-4276,PAYLOAD,2024-01-02 11:25:49,15.08845272,0.0001425,53.217,102.5513,79.6549,280.4604,0.00010678,1.412e-05,0.0,0 STARLINK-4276,1 53179U 22083AZ  24002.47627046  .00001412  00000-0  10678-3 0  9997,2 53179  53.2170 102.5513 0001425  79.6549 280.4604 15.08845272 82202,6917.864,95.437,540.715,538.743,0.0
53179.0,STARLINK-4276,PAYLOAD,2024-01-02 13:01:12,15.08845893,0.0001441,53.217,102.2539,78.7852,281.3302,0.0001109,1.478e-05,0.0,0 STARLINK-4276,1 53179U 22083AZ  24002.54250986  .00001478  00000-0  11090-3 0  9991,2 53179  53.2170 102.2539 0001441  78.7852 281.3302 15.08845893 81575,6917.862,95.437,540.724,538.731,0.0
53179.0,STARLINK-4276,PAYLOAD,2024-01-03 11:16:38,15.08832133,0.0001447,53.2171,98.0907,83.1867,276.929,-4.6802e-05,-1.033e-05,0.0,0 STARLINK-4276,1 53179U 22083AZ  24003.46988655 -.00001033  00000-0 -46802-4 0  9993,2 53179  53.2171  98.0907 0001447  83.1867 276.9290 15.08832133 82355,6917.904,95.438,540.77,538.768,0.0
